NARSSCUBE-2             
1 44415U 19022E   22363.12603839  .00011574  00000+0  30650-3 0  9994
2 44415  51.6378 252.8020 0010396  49.0752 311.1131 15.38774315190044
DUCHIFAT-3              
1 44854U 19089C   22363.47587876  .00005242  00000+0  39011-3 0  9999
2 44854  36.9652  22.9097 0007176   0.3805 149.3113 15.02759188167264
OPS-SAT                 
1 44878U 19092F   22363.47917275  .00012841  00000+0  52662-3 0  9999
2 44878  97.4764 186.2997 0012187  23.9515 336.2287 15.24319486167857
FLORIPASAT-1            
1 44885U 19093G   22363.20500251  .00002655  00000+0  32493-3 0  9993
2 44885  97.8845  81.3747 0012806 277.7028  82.2763 14.84001109163727
HUSKYSAT-1 (HO-107)     
1 45119U 19071J   22363.04547997  .00052686  00000+0  68682-3 0  9998
2 45119  51.6320 175.5844 0009725 175.3406 184.7678 15.58133338163542
BY70-2                  
1 45857U 20042B   22363.19856450  .00010303  00000+0  12758-2 0  9992
2 45857  97.9418  78.4079 0009864 197.1686 162.9228 14.82876844134289
SALSAT                  
1 46495U 20068K   22363.43974777  .00003512  00000+0  24748-3 0  9996
2 46495  97.7526 305.1309 0015642 343.4830  16.5885 15.05586992123515
NETSAT-4                
1 46504U 20068U   22363.31232663  .00005189  00000+0  37165-3 0  9994
2 46504  97.7422 303.0724 0012722  31.5173 328.6811 15.04774908123331
NETSAT-3                
1 46505U 20068V   22363.26708659  .00003387  00000+0  24470-3 0  9995
2 46505  97.7430 302.9128 0012210  37.0358 323.1738 15.04710393123331
NETSAT-1                
1 46506U 20068W   22363.55694089  .00003973  00000+0  28671-3 0  9997
2 46506  97.7433 303.1156 0010546  49.3783 310.8403 15.04661396123371
NETSAT-2                
1 46507U 20068X   22363.56773333  .00004585  00000+0  32996-3 0  9994
2 46507  97.7421 303.1176 0009579  56.7761 303.4351 15.04686502123324
BY70-3                  
1 46839U 20079N   22363.65496858  .00058188  00000+0  85615-3 0  9992
2 46839  97.1768  74.3886 0003279 357.0312 166.8562 15.55260345120427
UVSQ-SAT                
1 47438U 21006AB  22363.41150517  .00007154  00000+0  35009-3 0  9991
2 47438  97.4123  58.4533 0010196 324.1101  35.9447 15.18449661106836
SOMP2B                  
1 47445U 21006AJ  22363.39593557  .00007451  00000+0  36995-3 0  9996
2 47445  97.4096  57.9166 0010073 329.2890  30.7753 15.17930111106819
DIY-1 (ARDUIQUBE)       
1 47963U 21022AH  22363.40644907  .00026629  00000+0  11590-2 0  9998
2 47963  97.5167 263.2824 0013439 168.2027 191.9527 15.22128745 96500
CAS-5A                  
1 54684U 22167C   22363.42817698  .00007194  00000+0  45770-3 0  9992
2 54684  97.5388 138.0737 0014270 194.1378 256.7176 15.09012924  3038
